[{"OBJECT_NAME":"STARLINK-35139","OBJECT_ID":"2025-257A","EPOCH":"2026-03-09T16:19:16.027968","MEAN_MOTION":15.30203031,"ECCENTRICITY":0.00010818,"INCLINATION":53.1592,"RA_OF_ASC_NODE":216.9569,"ARG_OF_PERICENTER":70.9762,"MEAN_ANOMALY":289.1356,"EPHEMERIS_TYPE":0,"CLASSIFICATION_TYPE":"U","NORAD_CAT_ID":66380,"ELEMENT_SET_NO":999,"REV_AT_EPOCH":1967,"BSTAR":0.00089027174,"MEAN_MOTION_DOT":0.00026103,"MEAN_MOTION_DDOT":0},{"OBJECT_NAME":"COSMOS 1975","OBJECT_ID":"1988-093A","EPOCH":"2026-03-09T14:15:08.474112","MEAN_MOTION":15.28069249,"ECCENTRICITY":0.0012117,"INCLINATION":82.5181,"RA_OF_ASC_NODE":117.7814,"ARG_OF_PERICENTER":163.8427,"MEAN_ANOMALY":196.3201,"EPHEMERIS_TYPE":0,"CLASSIFICATION_TYPE":"U","NORAD_CAT_ID":19573,"ELEMENT_SET_NO":999,"REV_AT_EPOCH":1939,"BSTAR":0.0002787,"MEAN_MOTION_DOT":7.676e-5,"MEAN_MOTION_DDOT":0}]
